COSMOS 2588             
1 64095U 25109A   26068.81179522  .00009169  00000+0  32611-3 0  9998
2 64095  72.9704  73.5401 0005019 308.6780  51.3966 15.29122656 44425
STARLINK-35789          
1 67113U 25299M   26068.30204181  .00026284  00000+0  93654-3 0  9997
2 67113  43.0010 171.4723 0001783 273.4705  86.5943 15.28434906 13056
